EARTHCARE               
1 59908U 24101A   24181.32673561  .00020516  00000+0  31361-3 0  9998
2 59908  96.9810 308.8027 0004985  74.0659 286.1144 15.54410649  4875
